{"type": "FeatureCollection", "features": [ {"type": "Feature", "properties": {"norad_id": 33492, "name": "GOSAT (IBUKI)", "group": "resource", "lat": 46.549794846234136, "lon": -64.45717139039171, "alt_km": 664.2121029984237, "timestamp": "2025-12-24T11:32:59.660546+00:00", "meta": {"OBJECT_NAME": "GOSAT (IBUKI)", "OBJECT_ID": "2009-002A", "EPOCH": "2025-12-24T02:45:54.861120", "MEAN_MOTION": 14.67546106, "ECCENTRICITY": 0.0001013, "INCLINATION": 98.0771, "RA_OF_ASC_NODE": 106.5605, "ARG_OF_PERICENTER": 104.5957, "MEAN_ANOMALY": 255.536, "EPHEMERIS_TYPE": 0, "CLASSIFICATION_TYPE": "U", "NORAD_CAT_ID": 33492, "ELEMENT_SET_NO": 999, "REV_AT_EPOCH": 90578, "BSTAR": 0.00015247, "MEAN_MOTION_DOT": 8.17e-06, "MEAN_MOTION_DDOT": 0}, "tle": {"line1": "1 33492U 09002A   25358.11521830  .00000817  00000+0  15247-3 0  9993", "line2": "2 33492  98.0771 106.5605 0001013 104.5957 255.5360 14.67546106905789"}}, "geometry": {"type": "Point", "coordinates": [-64.45717139039171, 46.549794846234136]}}, {"type": "Feature", "properties": {"norad_id": 35681, "name": "DEIMOS-1", "group": "resource", "lat": 16.37549639467386, "lon": -19.178557939960992, "alt_km": 646.3003006490271, "timestamp": "2025-12-24T11:32:59.660558+00:00", "meta": {"OBJECT_NAME": "DEIMOS-1", "OBJECT_ID": "2009-041A", "EPOCH": "2025-12-24T04:17:57.518880", "MEAN_MOTION": 14.74969473, "ECCENTRICITY": 0.0002491, "INCLINATION": 97.7153, "RA_OF_ASC_NODE": 158.2504, "ARG_OF_PERICENTER": 61.3891, "MEAN_ANOMALY": 298.7569, "EPHEMERIS_TYPE": 0, "CLASSIFICATION_TYPE": "U", "NORAD_CAT_ID": 35681, "ELEMENT_SET_NO": 999, "REV_AT_EPOCH": 88108, "BSTAR": 0.00012647, "MEAN_MOTION_DOT": 8.03e-06, "MEAN_MOTION_DDOT": 0}, "tle": {"line1": "1 35681U 09041A   25358.17913795  .00000803  00000+0  12647-3 0  9995", "line2": "2 35681  97.7153 158.2504 0002491  61.3891 298.7569 14.74969473881081"}}, "geometry": {"type": "Point", "coordinates": [-19.178557939960992, 16.37549639467386]}}, {"type": "Feature", "properties": {"norad_id": 35682, "name": "DUBAISAT-1", "group": "resource", "lat": 80.05023070308911, "lon": 75.89381886423801, "alt_km": 645.355795956415, "timestamp": "2025-12-24T11:32:59.660569+00:00", "meta": {"OBJECT_NAME": "DUBAISAT-1", "OBJECT_ID": "2009-041B", "EPOCH": "2025-12-24T03:01:38.172000", "MEAN_MOTION": 14.74633676, "ECCENTRICITY": 0.0009261, "INCLINATION": 97.9797, "RA_OF_ASC_NODE": 128.6387, "ARG_OF_PERICENTER": 273.5108, "MEAN_ANOMALY": 86.5042, "EPHEMERIS_TYPE": 0, "CLASSIFICATION_TYPE": "U", "NORAD_CAT_ID": 35682, "ELEMENT_SET_NO": 999, "REV_AT_EPOCH": 87929, "BSTAR": 0.00019234, "MEAN_MOTION_DOT": 1.233e-05, "MEAN_MOTION_DDOT": 0}, "tle": {"line1": "1 35682U 09041B   25358.12613625  .00001233  00000+0  19234-3 0  9997", "line2": "2 35682  97.9797 128.6387 0009261 273.5108  86.5042 14.74633676879290"}}, "geometry": {"type": "Point", "coordinates": [75.89381886423801, 80.05023070308911]}}, {"type": "Feature", "properties": {"norad_id": 35931, "name": "OCEANSAT-2", "group": "resource", "lat": -23.900752422429214, "lon": 1.5638807520522555, "alt_km": 891.4307761238088, "timestamp": "2025-12-24T11:32:59.660580+00:00", "meta": {"OBJECT_NAME": "OCEANSAT-2", "OBJECT_ID": "2009-051A", "EPOCH": "2025-12-24T04:48:07.017408", "MEAN_MOTION": 13.99622888, "ECCENTRICITY": 0.0015918, "INCLINATION": 98.2218, "RA_OF_ASC_NODE": 357.6377, "ARG_OF_PERICENTER": 14.9356, "MEAN_ANOMALY": 345.2278, "EPHEMERIS_TYPE": 0, "CLASSIFICATION_TYPE": "U", "NORAD_CAT_ID": 35931, "ELEMENT_SET_NO": 999, "REV_AT_EPOCH": 85485, "BSTAR": -5.0728e-06, "MEAN_MOTION_DOT": -4.5e-07, "MEAN_MOTION_DDOT": 0}, "tle": {"line1": "1 35931U 09051A   25358.20008122 -.00000045  00000+0 -50728-5 0  9991", "line2": "2 35931  98.2218 357.6377 0015918  14.9356 345.2278 13.99622888854850"}}, "geometry": {"type": "Point", "coordinates": [1.5638807520522555, -23.900752422429214]}}, {"type": "Feature", "properties": {"norad_id": 35946, "name": "WORLDVIEW-2 (WV-2)", "group": "resource", "lat": -80.62476805655737, "lon": -175.19350023585278, "alt_km": 775.7756331502478, "timestamp": "2025-12-24T11:32:59.660591+00:00", "meta": {"OBJECT_NAME": "WORLDVIEW-2 (WV-2)", "OBJECT_ID": "2009-055A", "EPOCH": "2025-12-24T03:38:07.211904", "MEAN_MOTION": 14.37728903, "ECCENTRICITY": 0.0004758, "INCLINATION": 98.4773, "RA_OF_ASC_NODE": 69.0793, "ARG_OF_PERICENTER": 42.5829, "MEAN_ANOMALY": 317.5727, "EPHEMERIS_TYPE": 0, "CLASSIFICATION_TYPE": "U", "NORAD_CAT_ID": 35946, "ELEMENT_SET_NO": 999, "REV_AT_EPOCH": 85049, "BSTAR": 7.0857e-05, "MEAN_MOTION_DOT": 1.7e-06, "MEAN_MOTION_DDOT": 0}, "tle": {"line1": "1 35946U 09055A   25358.15147236  .00000170  00000+0  70857-4 0  9996", "line2": "2 35946  98.4773  69.0793 0004758  42.5829 317.5727 14.37728903850497"}}, "geometry": {"type": "Point", "coordinates": [-175.19350023585278, -80.62476805655737]}}, {"type": "Feature", "properties": {"norad_id": 36036, "name": "SMOS", "group": "resource", "lat": 26.29561914495095, "lon": 179.14916962633959, "alt_km": 757.9156253094861, "timestamp": "2025-12-24T11:32:59.660603+00:00", "meta": {"OBJECT_NAME": "SMOS", "OBJECT_ID": "2009-059A", "EPOCH": "2025-12-24T03:05:13.665696", "MEAN_MOTION": 14.39751102, "ECCENTRICITY": 0.0001058, "INCLINATION": 98.4381, "RA_OF_ASC_NODE": 183.0084, "ARG_OF_PERICENTER": 82.5241, "MEAN_ANOMALY": 277.6067, "EPHEMERIS_TYPE": 0, "CLASSIFICATION_TYPE": "U", "NORAD_CAT_ID": 36036, "ELEMENT_SET_NO": 999, "REV_AT_EPOCH": 84826, "BSTAR": 0.00013575, "MEAN_MOTION_DOT": 3.82e-06, "MEAN_MOTION_DDOT": 0}, "tle": {"line1": "1 36036U 09059A   25358.12863039  .00000382  00000+0  13575-3 0  9992", "line2": "2 36036  98.4381 183.0084 0001058  82.5241 277.6067 14.39751102848269"}}, "geometry": {"type": "Point", "coordinates": [179.14916962633959, 26.29561914495095]}}, {"type": "Feature", "properties": {"norad_id": 36110, "name": "YAOGAN-7", "group": "resource", "lat": 14.977710717279841, "lon": -121.96841315060318, "alt_km": 648.6934657579477, "timestamp": "2025-12-24T11:32:59.660615+00:00", "meta": {"OBJECT_NAME": "YAOGAN-7", "OBJECT_ID": "2009-069A", "EPOCH": "2025-12-24T03:21:21.813984", "MEAN_MOTION": 14.77748272, "ECCENTRICITY": 0.0023428, "INCLINATION": 98.0295, "RA_OF_ASC_NODE": 239.8558, "ARG_OF_PERICENTER": 242.419, "MEAN_ANOMALY": 117.4641, "EPHEMERIS_TYPE": 0, "CLASSIFICATION_TYPE": "U", "NORAD_CAT_ID": 36110, "ELEMENT_SET_NO": 999, "REV_AT_EPOCH": 86377, "BSTAR": 9.2579e-05, "MEAN_MOTION_DOT": 6.13e-06, "MEAN_MOTION_DDOT": 0}, "tle": {"line1": "1 36110U 09069A   25358.13983581  .00000613  00000+0  92579-4 0  9991", "line2": "2 36110  98.0295 239.8558 0023428 242.4190 117.4641 14.77748272863771"}}, "geometry": {"type": "Point", "coordinates": [-121.96841315060318, 14.977710717279841]}}, {"type": "Feature", "properties": {"norad_id": 36605, "name": "TANDEM-X", "group": "resource", "lat": -27.90541498535424, "lon": 179.71841685030722, "alt_km": 514.8697791604791, "timestamp": "2025-12-24T11:32:59.660627+00:00", "meta": {"OBJECT_NAME": "TANDEM-X", "OBJECT_ID": "2010-030A", "EPOCH": "2025-12-23T10:55:27.931296", "MEAN_MOTION": 15.19148406, "ECCENTRICITY": 0.00017726, "INCLINATION": 97.4453, "RA_OF_ASC_NODE": 2.6785, "ARG_OF_PERICENTER": 93.7268, "MEAN_ANOMALY": 266.4169, "EPHEMERIS_TYPE": 0, "CLASSIFICATION_TYPE": "U", "NORAD_CAT_ID": 36605, "ELEMENT_SET_NO": 999, "REV_AT_EPOCH": 85996, "BSTAR": 4.175648e-05, "MEAN_MOTION_DOT": 8.1e-06, "MEAN_MOTION_DDOT": 0}, "tle": {"line1": "1 36605U 10030A   25357.45518439  .00000810  00000+0  41756-4 0  9990", "line2": "2 36605  97.4453   2.6785 0001772  93.7268 266.4169 15.19148406859964"}}, "geometry": {"type": "Point", "coordinates": [179.71841685030722, -27.90541498535424]}}, {"type": "Feature", "properties": {"norad_id": 36795, "name": "CARTOSAT-2B", "group": "resource", "lat": -15.995222793292696, "lon": 49.37598625096551, "alt_km": 633.4258103203929, "timestamp": "2025-12-24T11:32:59.660637+00:00", "meta": {"OBJECT_NAME": "CARTOSAT-2B", "OBJECT_ID": "2010-035A", "EPOCH": "2025-12-24T03:30:09.629856", "MEAN_MOTION": 14.78739339, "ECCENTRICITY": 0.0012621, "INCLINATION": 97.7834, "RA_OF_ASC_NODE": 46.8046, "ARG_OF_PERICENTER": 42.8426, "MEAN_ANOMALY": 317.3767, "EPHEMERIS_TYPE": 0, "CLASSIFICATION_TYPE": "U", "NORAD_CAT_ID": 36795, "ELEMENT_SET_NO": 999, "REV_AT_EPOCH": 83398, "BSTAR": 4.5909e-05, "MEAN_MOTION_DOT": 2.87e-06, "MEAN_MOTION_DDOT": 0}, "tle": {"line1": "1 36795U 10035A   25358.14594479  .00000287  00000+0  45909-4 0  9992", "line2": "2 36795  97.7834  46.8046 0012621  42.8426 317.3767 14.78739339833985"}}, "geometry": {"type": "Point", "coordinates": [49.37598625096551, -15.995222793292696]}}, {"type": "Feature", "properties": {"norad_id": 36834, "name": "YAOGAN-10", "group": "resource", "lat": -46.252392847069984, "lon": 26.568000724040612, "alt_km": 622.049645696562, "timestamp": "2025-12-24T11:32:59.660648+00:00", "meta": {"OBJECT_NAME": "YAOGAN-10", "OBJECT_ID": "2010-038A", "EPOCH": "2025-12-24T05:20:28.601664", "MEAN_MOTION": 14.84649965, "ECCENTRICITY": 0.0001368, "INCLINATION": 97.9128, "RA_OF_ASC_NODE": 17.9566, "ARG_OF_PERICENTER": 81.0935, "MEAN_ANOMALY": 290.3757, "EPHEMERIS_TYPE": 0, "CLASSIFICATION_TYPE": "U", "NORAD_CAT_ID": 36834, "ELEMENT_SET_NO": 999, "REV_AT_EPOCH": 83124, "BSTAR": 0.00029076, "MEAN_MOTION_DOT": 2.405e-05, "MEAN_MOTION_DDOT": 0}, "tle": {"line1": "1 36834U 10038A   25358.22255326  .00002405  00000+0  29076-3 0  9993", "line2": "2 36834  97.9128  17.9566 0001368  81.0935 290.3757 14.84649965831247"}}, "geometry": {"type": "Point", "coordinates": [26.568000724040612, -46.252392847069984]}}]}